CCSDS_OMM_VERS = 2.0
CREATION_DATE  = 
ORIGINATOR     = 

OBJECT_NAME    = IDEFIX & ARIANE 42P R/B
OBJECT_ID      = 2002-021B
CENTER_NAME    = EARTH
REF_FRAME      = TEME
TIME_SYSTEM    = UTC
MEAN_ELEMENT_THEORY = SGP/SGP4

EPOCH          = 2026-03-03T09:54:27.269568
MEAN_MOTION    = 14.31020865
ECCENTRICITY   = .00112172
INCLINATION    = 98.5864
RA_OF_ASC_NODE = 1.0943
ARG_OF_PERICENTER = 201.2440
MEAN_ANOMALY   = 158.8279

EPHEMERIS_TYPE = 0
CLASSIFICATION_TYPE = U
NORAD_CAT_ID   = 27422
ELEMENT_SET_NO = 999
REV_AT_EPOCH   = 24312
BSTAR          = .15662463E-3
MEAN_MOTION_DOT = .369E-5
MEAN_MOTION_DDOT = 0

CCSDS_OMM_VERS = 2.0
CREATION_DATE  = 
ORIGINATOR     = 

OBJECT_NAME    = AQUA
OBJECT_ID      = 2002-022A
CENTER_NAME    = EARTH
REF_FRAME      = TEME
TIME_SYSTEM    = UTC
MEAN_ELEMENT_THEORY = SGP/SGP4

EPOCH          = 2026-03-03T14:13:31.258560
MEAN_MOTION    = 14.61959184
ECCENTRICITY   = .00006655
INCLINATION    = 98.4164
RA_OF_ASC_NODE = 29.8471
ARG_OF_PERICENTER = 58.4833
MEAN_ANOMALY   = 359.7179

EPHEMERIS_TYPE = 0
CLASSIFICATION_TYPE = U
NORAD_CAT_ID   = 27424
ELEMENT_SET_NO = 999
REV_AT_EPOCH   = 26784
BSTAR          = .28597194E-3
MEAN_MOTION_DOT = .1383E-4
MEAN_MOTION_DDOT = 0

CCSDS_OMM_VERS = 2.0
CREATION_DATE  = 
ORIGINATOR     = 

OBJECT_NAME    = CZ-4B R/B
OBJECT_ID      = 2002-024C
CENTER_NAME    = EARTH
REF_FRAME      = TEME
TIME_SYSTEM    = UTC
MEAN_ELEMENT_THEORY = SGP/SGP4

EPOCH          = 2026-03-03T15:30:45.625824
MEAN_MOTION    = 14.14546346
ECCENTRICITY   = .00507464
INCLINATION    = 98.8852
RA_OF_ASC_NODE = 116.0832
ARG_OF_PERICENTER = 41.1950
MEAN_ANOMALY   = 73.1351

EPHEMERIS_TYPE = 0
CLASSIFICATION_TYPE = U
NORAD_CAT_ID   = 27432
ELEMENT_SET_NO = 999
REV_AT_EPOCH   = 22838
BSTAR          = .56405168E-4
MEAN_MOTION_DOT = .65E-6
MEAN_MOTION_DDOT = 0

CCSDS_OMM_VERS = 2.0
CREATION_DATE  = 
ORIGINATOR     = 

OBJECT_NAME    = MIDORI II (ADEOS-II)
OBJECT_ID      = 2002-056A
CENTER_NAME    = EARTH
REF_FRAME      = TEME
TIME_SYSTEM    = UTC
MEAN_ELEMENT_THEORY = SGP/SGP4

EPOCH          = 2026-03-03T12:04:42.292128
MEAN_MOTION    = 14.29279329
ECCENTRICITY   = .00018122
INCLINATION    = 98.7759
RA_OF_ASC_NODE = 20.9386
ARG_OF_PERICENTER = 51.7611
MEAN_ANOMALY   = 308.3733

EPHEMERIS_TYPE = 0
CLASSIFICATION_TYPE = U
NORAD_CAT_ID   = 27597
ELEMENT_SET_NO = 999
REV_AT_EPOCH   = 20941
BSTAR          = .16951032E-3
MEAN_MOTION_DOT = .386E-5
MEAN_MOTION_DDOT = 0

CCSDS_OMM_VERS = 2.0
CREATION_DATE  = 
ORIGINATOR     = 

OBJECT_NAME    = H-2A R/B
OBJECT_ID      = 2002-056E
CENTER_NAME    = EARTH
REF_FRAME      = TEME
TIME_SYSTEM    = UTC
MEAN_ELEMENT_THEORY = SGP/SGP4

EPOCH          = 2026-03-03T12:09:33.727104
MEAN_MOTION    = 14.33755888
ECCENTRICITY   = .00701135
INCLINATION    = 98.3191
RA_OF_ASC_NODE = 23.1080
ARG_OF_PERICENTER = 179.0469
MEAN_ANOMALY   = 295.4990

EPHEMERIS_TYPE = 0
CLASSIFICATION_TYPE = U
NORAD_CAT_ID   = 27601
ELEMENT_SET_NO = 999
REV_AT_EPOCH   = 21322
BSTAR          = .13532104E-3
MEAN_MOTION_DOT = .345E-5
MEAN_MOTION_DDOT = 0

CCSDS_OMM_VERS = 2.0
CREATION_DATE  = 
ORIGINATOR     = 

OBJECT_NAME    = CZ-4B R/B
OBJECT_ID      = 2003-049C
CENTER_NAME    = EARTH
REF_FRAME      = TEME
TIME_SYSTEM    = UTC
MEAN_ELEMENT_THEORY = SGP/SGP4

EPOCH          = 2026-03-03T14:34:05.719296
MEAN_MOTION    = 14.55013265
ECCENTRICITY   = .00470559
INCLINATION    = 98.6873
RA_OF_ASC_NODE = 57.2734
ARG_OF_PERICENTER = 249.8633
MEAN_ANOMALY   = 109.7497

EPHEMERIS_TYPE = 0
CLASSIFICATION_TYPE = U
NORAD_CAT_ID   = 28059
ELEMENT_SET_NO = 999
REV_AT_EPOCH   = 18571
BSTAR          = .13779981E-3
MEAN_MOTION_DOT = .55E-5
MEAN_MOTION_DDOT = 0

CCSDS_OMM_VERS = 2.0
CREATION_DATE  = 
ORIGINATOR     = 

OBJECT_NAME    = CZ-2C R/B
OBJECT_ID      = 2004-012C
CENTER_NAME    = EARTH
REF_FRAME      = TEME
TIME_SYSTEM    = UTC
MEAN_ELEMENT_THEORY = SGP/SGP4

EPOCH          = 2026-03-03T14:17:11.621760
MEAN_MOTION    = 15.63675562
ECCENTRICITY   = .0013355
INCLINATION    = 97.7246
RA_OF_ASC_NODE = 127.3138
ARG_OF_PERICENTER = 334.3248
MEAN_ANOMALY   = 25.7345

EPHEMERIS_TYPE = 0
CLASSIFICATION_TYPE = U
NORAD_CAT_ID   = 28222
ELEMENT_SET_NO = 999
REV_AT_EPOCH   = 20332
BSTAR          = .75404438E-3
MEAN_MOTION_DOT = .70849E-3
MEAN_MOTION_DDOT = 0

CCSDS_OMM_VERS = 2.0
CREATION_DATE  = 
ORIGINATOR     = 

OBJECT_NAME    = SL-16 R/B
OBJECT_ID      = 2004-021B
CENTER_NAME    = EARTH
REF_FRAME      = TEME
TIME_SYSTEM    = UTC
MEAN_ELEMENT_THEORY = SGP/SGP4

EPOCH          = 2026-03-03T12:24:42.848640
MEAN_MOTION    = 14.14599678
ECCENTRICITY   = .00037248
INCLINATION    = 70.9992
RA_OF_ASC_NODE = 245.4467
ARG_OF_PERICENTER = 21.9889
MEAN_ANOMALY   = 338.1393

EPHEMERIS_TYPE = 0
CLASSIFICATION_TYPE = U
NORAD_CAT_ID   = 28353
ELEMENT_SET_NO = 999
REV_AT_EPOCH   = 12196
BSTAR          = -.38548919E-4
MEAN_MOTION_DOT = -.122E-5
MEAN_MOTION_DDOT = 0

CCSDS_OMM_VERS = 2.0
CREATION_DATE  = 
ORIGINATOR     = 

OBJECT_NAME    = CZ-4B R/B
OBJECT_ID      = 2004-035C
CENTER_NAME    = EARTH
REF_FRAME      = TEME
TIME_SYSTEM    = UTC
MEAN_ELEMENT_THEORY = SGP/SGP4

EPOCH          = 2026-03-03T15:02:17.423520
MEAN_MOTION    = 15.28932258
ECCENTRICITY   = .0031634
INCLINATION    = 97.3505
RA_OF_ASC_NODE = 96.9417
ARG_OF_PERICENTER = 353.5115
MEAN_ANOMALY   = 6.5711

EPHEMERIS_TYPE = 0
CLASSIFICATION_TYPE = U
NORAD_CAT_ID   = 28415
ELEMENT_SET_NO = 999
REV_AT_EPOCH   = 17898
BSTAR          = .38585672E-3
MEAN_MOTION_DOT = .10935E-3
MEAN_MOTION_DDOT = 0

CCSDS_OMM_VERS = 2.0
CREATION_DATE  = 
ORIGINATOR     = 

OBJECT_NAME    = CZ-2C R/B
OBJECT_ID      = 2004-046B
CENTER_NAME    = EARTH
REF_FRAME      = TEME
TIME_SYSTEM    = UTC
MEAN_ELEMENT_THEORY = SGP/SGP4

EPOCH          = 2026-03-03T14:17:37.899456
MEAN_MOTION    = 14.26989820
ECCENTRICITY   = .01395121
INCLINATION    = 98.1987
RA_OF_ASC_NODE = 337.9586
ARG_OF_PERICENTER = 172.4204
MEAN_ANOMALY   = 187.9132

EPHEMERIS_TYPE = 0
CLASSIFICATION_TYPE = U
NORAD_CAT_ID   = 28480
ELEMENT_SET_NO = 999
REV_AT_EPOCH   = 10763
BSTAR          = .75542021E-4
MEAN_MOTION_DOT = .163E-5
MEAN_MOTION_DDOT = 0

CCSDS_OMM_VERS = 2.0
CREATION_DATE  = 
ORIGINATOR     = 

OBJECT_NAME    = ARIANE 5 R/B
OBJECT_ID      = 2004-049H
CENTER_NAME    = EARTH
REF_FRAME      = TEME
TIME_SYSTEM    = UTC
MEAN_ELEMENT_THEORY = SGP/SGP4

EPOCH          = 2026-03-03T10:26:03.749568
MEAN_MOTION    = 14.85252013
ECCENTRICITY   = .0084395
INCLINATION    = 98.2616
RA_OF_ASC_NODE = 230.6580
ARG_OF_PERICENTER = 12.1868
MEAN_ANOMALY   = 348.1361

EPHEMERIS_TYPE = 0
CLASSIFICATION_TYPE = U
NORAD_CAT_ID   = 28499
ELEMENT_SET_NO = 999
REV_AT_EPOCH   = 14486
BSTAR          = .12045707E-3
MEAN_MOTION_DOT = .1037E-4
MEAN_MOTION_DDOT = 0

CCSDS_OMM_VERS = 2.0
CREATION_DATE  = 
ORIGINATOR     = 

OBJECT_NAME    = CZ-2D R/B
OBJECT_ID      = 2005-024B
CENTER_NAME    = EARTH
REF_FRAME      = TEME
TIME_SYSTEM    = UTC
MEAN_ELEMENT_THEORY = SGP/SGP4

EPOCH          = 2026-03-03T14:45:30.328704
MEAN_MOTION    = 15.59502530
ECCENTRICITY   = .00067606
INCLINATION    = 97.3595
RA_OF_ASC_NODE = 77.5405
ARG_OF_PERICENTER = 62.2677
MEAN_ANOMALY   = 297.9265

EPHEMERIS_TYPE = 0
CLASSIFICATION_TYPE = U
NORAD_CAT_ID   = 28738
ELEMENT_SET_NO = 999
REV_AT_EPOCH   = 13883
BSTAR          = .61482861E-3
MEAN_MOTION_DOT = .48884E-3
MEAN_MOTION_DDOT = 0

